ORBCOMM FM05 [-]        
1 25117U 97084F   24042.53730607  .00003843  00000+0  11995-2 0  9991
2 25117  45.0136 201.4176 0002854 251.6701 108.3839 14.42148057370489
ORBCOMM FM06 [+]        
1 25118U 97084G   24042.58963225  .00004312  00000+0  13409-2 0  9995
2 25118  45.0129 201.3489 0002061 251.9749 229.6439 14.42138558370469
ORBCOMM FM07 [-]        
1 25119U 97084H   24042.55292706  .00003580  00000+0  11221-2 0  9998
2 25119  45.0125 202.0136 0003689 244.3425 115.7044 14.42068724370450
ORBCOMM FM17 [-]        
1 25413U 98046A   24042.39176572  .00001880  00000+0  73437-3 0  9997
2 25413  44.9958  54.3301 0004232 274.8298  85.2065 14.32795506332582
ORBCOMM FM19 [+]        
1 25415U 98046C   24042.26121389  .00002665  00000+0  97059-3 0  9999
2 25415  44.9961 345.1855 0004528 317.9888 195.6130 14.35287573333454
